CCSDS_OMM_VERS = 2.0
CREATION_DATE  = 
ORIGINATOR     = 

OBJECT_NAME    = STARLINK-36787
OBJECT_ID      = 2026-042AB
CENTER_NAME    = EARTH
REF_FRAME      = TEME
TIME_SYSTEM    = UTC
MEAN_ELEMENT_THEORY = SGP/SGP4

EPOCH          = 2026-03-27T16:00:01.999584
MEAN_MOTION    = 15.75263541
ECCENTRICITY   = .00010853
INCLINATION    = 53.1593
RA_OF_ASC_NODE = 104.8129
ARG_OF_PERICENTER = 94.2361
MEAN_ANOMALY   = 293.8406

EPHEMERIS_TYPE = 0
CLASSIFICATION_TYPE = U
NORAD_CAT_ID   = 68094
ELEMENT_SET_NO = 999
REV_AT_EPOCH   = 493
BSTAR          = -.39458536E-3
MEAN_MOTION_DOT = -.60756E-3
MEAN_MOTION_DDOT = 0

CCSDS_OMM_VERS = 2.0
CREATION_DATE  = 
ORIGINATOR     = 

OBJECT_NAME    = STARLINK-36790
OBJECT_ID      = 2026-042AC
CENTER_NAME    = EARTH
REF_FRAME      = TEME
TIME_SYSTEM    = UTC
MEAN_ELEMENT_THEORY = SGP/SGP4

EPOCH          = 2026-03-28T04:00:01.999584
MEAN_MOTION    = 15.75311083
ECCENTRICITY   = .00010998
INCLINATION    = 53.1591
RA_OF_ASC_NODE = 102.1163
ARG_OF_PERICENTER = 93.0240
MEAN_ANOMALY   = 355.1262

EPHEMERIS_TYPE = 0
CLASSIFICATION_TYPE = U
NORAD_CAT_ID   = 68095
ELEMENT_SET_NO = 999
REV_AT_EPOCH   = 501
BSTAR          = -.87801479E-3
MEAN_MOTION_DOT = -.133544E-2
MEAN_MOTION_DDOT = 0

CCSDS_OMM_VERS = 2.0
CREATION_DATE  = 
ORIGINATOR     = 

OBJECT_NAME    = STARLINK-36328
OBJECT_ID      = 2026-042AD
CENTER_NAME    = EARTH
REF_FRAME      = TEME
TIME_SYSTEM    = UTC
MEAN_ELEMENT_THEORY = SGP/SGP4

EPOCH          = 2026-03-27T12:05:19.595328
MEAN_MOTION    = 15.78521578
ECCENTRICITY   = .0000907
INCLINATION    = 53.1583
RA_OF_ASC_NODE = 105.2594
ARG_OF_PERICENTER = 116.3541
MEAN_ANOMALY   = 243.7574

EPHEMERIS_TYPE = 0
CLASSIFICATION_TYPE = U
NORAD_CAT_ID   = 68096
ELEMENT_SET_NO = 999
REV_AT_EPOCH   = 489
BSTAR          = -.49254E-2
MEAN_MOTION_DOT = -.796908E-2
MEAN_MOTION_DDOT = 0

CCSDS_OMM_VERS = 2.0
CREATION_DATE  = 
ORIGINATOR     = 

OBJECT_NAME    = STARLINK-36853
OBJECT_ID      = 2026-042AE
CENTER_NAME    = EARTH
REF_FRAME      = TEME
TIME_SYSTEM    = UTC
MEAN_ELEMENT_THEORY = SGP/SGP4

EPOCH          = 2026-03-27T18:10:48.142560
MEAN_MOTION    = 15.80984131
ECCENTRICITY   = .00031425
INCLINATION    = 53.1580
RA_OF_ASC_NODE = 103.9995
ARG_OF_PERICENTER = 75.7895
MEAN_ANOMALY   = 284.3477

EPHEMERIS_TYPE = 0
CLASSIFICATION_TYPE = U
NORAD_CAT_ID   = 68097
ELEMENT_SET_NO = 999
REV_AT_EPOCH   = 493
BSTAR          = .19782616E-2
MEAN_MOTION_DOT = .411016E-2
MEAN_MOTION_DDOT = 0

CCSDS_OMM_VERS = 2.0
CREATION_DATE  = 
ORIGINATOR     = 

OBJECT_NAME    = GLOBAL-34
OBJECT_ID      = 2026-043A
CENTER_NAME    = EARTH
REF_FRAME      = TEME
TIME_SYSTEM    = UTC
MEAN_ELEMENT_THEORY = SGP/SGP4

EPOCH          = 2026-03-27T22:17:33.026208
MEAN_MOTION    = 15.31837489
ECCENTRICITY   = .0003894
INCLINATION    = 42.0228
RA_OF_ASC_NODE = 330.2021
ARG_OF_PERICENTER = 48.7864
MEAN_ANOMALY   = 311.3308

EPHEMERIS_TYPE = 0
CLASSIFICATION_TYPE = U
NORAD_CAT_ID   = 68098
ELEMENT_SET_NO = 999
REV_AT_EPOCH   = 336
BSTAR          = .39525E-3
MEAN_MOTION_DOT = .12183E-3
MEAN_MOTION_DDOT = 0

CCSDS_OMM_VERS = 2.0
CREATION_DATE  = 
ORIGINATOR     = 

OBJECT_NAME    = STARLINK-37022
OBJECT_ID      = 2026-044A
CENTER_NAME    = EARTH
REF_FRAME      = TEME
TIME_SYSTEM    = UTC
MEAN_ELEMENT_THEORY = SGP/SGP4

EPOCH          = 2026-03-28T04:49:22.334880
MEAN_MOTION    = 15.75259409
ECCENTRICITY   = .00013775
INCLINATION    = 97.2842
RA_OF_ASC_NODE = 48.2464
ARG_OF_PERICENTER = 83.6821
MEAN_ANOMALY   = 276.4601

EPHEMERIS_TYPE = 0
CLASSIFICATION_TYPE = U
NORAD_CAT_ID   = 68101
ELEMENT_SET_NO = 999
REV_AT_EPOCH   = 439
BSTAR          = .10338587E-2
MEAN_MOTION_DOT = .157423E-2
MEAN_MOTION_DDOT = 0

CCSDS_OMM_VERS = 2.0
CREATION_DATE  = 
ORIGINATOR     = 

OBJECT_NAME    = STARLINK-37046
OBJECT_ID      = 2026-044B
CENTER_NAME    = EARTH
REF_FRAME      = TEME
TIME_SYSTEM    = UTC
MEAN_ELEMENT_THEORY = SGP/SGP4

EPOCH          = 2026-03-28T04:47:51.118944
MEAN_MOTION    = 15.75244359
ECCENTRICITY   = .00015316
INCLINATION    = 97.2841
RA_OF_ASC_NODE = 48.2483
ARG_OF_PERICENTER = 112.5582
MEAN_ANOMALY   = 247.5845

EPHEMERIS_TYPE = 0
CLASSIFICATION_TYPE = U
NORAD_CAT_ID   = 68102
ELEMENT_SET_NO = 999
REV_AT_EPOCH   = 439
BSTAR          = .89573142E-3
MEAN_MOTION_DOT = .135941E-2
MEAN_MOTION_DDOT = 0

CCSDS_OMM_VERS = 2.0
CREATION_DATE  = 
ORIGINATOR     = 

OBJECT_NAME    = STARLINK-37018
OBJECT_ID      = 2026-044C
CENTER_NAME    = EARTH
REF_FRAME      = TEME
TIME_SYSTEM    = UTC
MEAN_ELEMENT_THEORY = SGP/SGP4

EPOCH          = 2026-03-28T04:45:49.254336
MEAN_MOTION    = 15.75247283
ECCENTRICITY   = .00014253
INCLINATION    = 97.2843
RA_OF_ASC_NODE = 48.2501
ARG_OF_PERICENTER = 107.9690
MEAN_ANOMALY   = 252.1731

EPHEMERIS_TYPE = 0
CLASSIFICATION_TYPE = U
NORAD_CAT_ID   = 68103
ELEMENT_SET_NO = 999
REV_AT_EPOCH   = 439
BSTAR          = .10328252E-2
MEAN_MOTION_DOT = .157179E-2
MEAN_MOTION_DDOT = 0

CCSDS_OMM_VERS = 2.0
CREATION_DATE  = 
ORIGINATOR     = 

OBJECT_NAME    = STARLINK-37041
OBJECT_ID      = 2026-044D
CENTER_NAME    = EARTH
REF_FRAME      = TEME
TIME_SYSTEM    = UTC
MEAN_ELEMENT_THEORY = SGP/SGP4

EPOCH          = 2026-03-28T04:44:17.693664
MEAN_MOTION    = 15.75256196
ECCENTRICITY   = .00015268
INCLINATION    = 97.2844
RA_OF_ASC_NODE = 48.2512
ARG_OF_PERICENTER = 103.7392
MEAN_ANOMALY   = 256.4043

EPHEMERIS_TYPE = 0
CLASSIFICATION_TYPE = U
NORAD_CAT_ID   = 68104
ELEMENT_SET_NO = 999
REV_AT_EPOCH   = 439
BSTAR          = .11315914E-2
MEAN_MOTION_DOT = .172603E-2
MEAN_MOTION_DDOT = 0

CCSDS_OMM_VERS = 2.0
CREATION_DATE  = 
ORIGINATOR     = 

OBJECT_NAME    = STARLINK-37021
OBJECT_ID      = 2026-044E
CENTER_NAME    = EARTH
REF_FRAME      = TEME
TIME_SYSTEM    = UTC
MEAN_ELEMENT_THEORY = SGP/SGP4

EPOCH          = 2026-03-28T04:42:15.546528
MEAN_MOTION    = 15.75252461
ECCENTRICITY   = .00015555
INCLINATION    = 97.2845
RA_OF_ASC_NODE = 48.2529
ARG_OF_PERICENTER = 109.6835
MEAN_ANOMALY   = 250.4598

EPHEMERIS_TYPE = 0
CLASSIFICATION_TYPE = U
NORAD_CAT_ID   = 68105
ELEMENT_SET_NO = 999
REV_AT_EPOCH   = 439
BSTAR          = .93302798E-3
MEAN_MOTION_DOT = .141754E-2
MEAN_MOTION_DDOT = 0

CCSDS_OMM_VERS = 2.0
CREATION_DATE  = 
ORIGINATOR     = 

OBJECT_NAME    = STARLINK-37024
OBJECT_ID      = 2026-044F
CENTER_NAME    = EARTH
REF_FRAME      = TEME
TIME_SYSTEM    = UTC
MEAN_ELEMENT_THEORY = SGP/SGP4

EPOCH          = 2026-03-28T04:40:44.397984
MEAN_MOTION    = 15.75245868
ECCENTRICITY   = .00017463
INCLINATION    = 97.2846
RA_OF_ASC_NODE = 48.2543
ARG_OF_PERICENTER = 115.6730
MEAN_ANOMALY   = 244.4716

EPHEMERIS_TYPE = 0
CLASSIFICATION_TYPE = U
NORAD_CAT_ID   = 68106
ELEMENT_SET_NO = 999
REV_AT_EPOCH   = 439
BSTAR          = .10349796E-2
MEAN_MOTION_DOT = .157506E-2
MEAN_MOTION_DDOT = 0

CCSDS_OMM_VERS = 2.0
CREATION_DATE  = 
ORIGINATOR     = 

OBJECT_NAME    = STARLINK-37005
OBJECT_ID      = 2026-044G
CENTER_NAME    = EARTH
REF_FRAME      = TEME
TIME_SYSTEM    = UTC
MEAN_ELEMENT_THEORY = SGP/SGP4

EPOCH          = 2026-03-28T04:44:48.476256
MEAN_MOTION    = 15.75243541
ECCENTRICITY   = .0002029
INCLINATION    = 97.2843
RA_OF_ASC_NODE = 48.2511
ARG_OF_PERICENTER = 112.2638
MEAN_ANOMALY   = 247.8842

EPHEMERIS_TYPE = 0
CLASSIFICATION_TYPE = U
NORAD_CAT_ID   = 68107
ELEMENT_SET_NO = 999
REV_AT_EPOCH   = 439
BSTAR          = .1145251E-2
MEAN_MOTION_DOT = .174639E-2
MEAN_MOTION_DDOT = 0

