STARLINK-36787          
1 68094U 26042AB  26086.66668981 -.00060756  00000+0 -39459-3 0  9991
2 68094  53.1593 104.8129 0001085  94.2361 293.8406 15.75263541  4936
STARLINK-36790          
1 68095U 26042AC  26087.16668981 -.00133544  00000+0 -87801-3 0  9998
2 68095  53.1591 102.1163 0001099  93.0240 355.1262 15.75311083  5019
STARLINK-36328          
1 68096U 26042AD  26086.50369902 -.00796908  00000+0 -49254-2 0  9995
2 68096  53.1583 105.2594 0000907 116.3541 243.7574 15.78521578  4891
STARLINK-36853          
1 68097U 26042AE  26086.75750165  .00411016  00000+0  19783-2 0  9994
2 68097  53.1580 103.9995 0003142  75.7895 284.3477 15.80984131  4932
GLOBAL-34               
1 68098U 26043A   26086.92885447  .00012183  00000+0  39525-3 0  9996
2 68098  42.0228 330.2021 0003894  48.7864 311.3308 15.31837489  3363
STARLINK-37022          
1 68101U 26044A   26087.20095295  .00157423  00000+0  10339-2 0  9996
2 68101  97.2842  48.2464 0001377  83.6821 276.4601 15.75259409  4393
STARLINK-37046          
1 68102U 26044B   26087.19989721  .00135941  00000+0  89573-3 0  9999
2 68102  97.2841  48.2483 0001531 112.5582 247.5845 15.75244359  4399
STARLINK-37018          
1 68103U 26044C   26087.19848674  .00157179  00000+0  10328-2 0  9999
2 68103  97.2843  48.2501 0001425 107.9690 252.1731 15.75247283  4398
STARLINK-37041          
1 68104U 26044D   26087.19742701  .00172603  00000+0  11316-2 0  9991
2 68104  97.2844  48.2512 0001526 103.7392 256.4043 15.75256196  4393
STARLINK-37021          
1 68105U 26044E   26087.19601327  .00141754  00000+0  93303-3 0  9990
2 68105  97.2845  48.2529 0001555 109.6835 250.4598 15.75252461  4392
STARLINK-37024          
1 68106U 26044F   26087.19495831  .00157506  00000+0  10350-2 0  9994
2 68106  97.2846  48.2543 0001746 115.6730 244.4716 15.75245868  4391
STARLINK-37005          
1 68107U 26044G   26087.19778329  .00174639  00000+0  11453-2 0  9992
2 68107  97.2843  48.2511 0002029 112.2638 247.8842 15.75243541  4392
